0 FENGYUN 1C DEB
1 30811U 99025AUV 13286.23318384  .00000936  00000-0  11430-2 0   721
2 30811 098.8242 020.1853 0302172 347.5354 011.8427 13.50546967327824
0 FENGYUN 1C DEB
1 30811U 99025AUV 13289.19641003  .00001189  00000-0  14399-2 0   735
2 30811 098.8240 022.8189 0302262 339.8748 019.0677 13.50554368328220
0 FENGYUN 1C DEB
1 30811U 99025AUV 13290.23353607  .00001233  00000-0  14915-2 0   747
2 30811 098.8239 023.7409 0302286 337.2032 021.5917 13.50556670328365
0 FENGYUN 1C DEB
1 30811U 99025AUV 13295.19690945  .00001368  00000-0  16499-2 0   755
2 30811 098.8239 028.1530 0302049 324.4838 033.6519 13.50568089329032
